STARLINK-30105          
1 57433U 23105D   26188.07323756 -.00000991  00000+0 -26487-4 0  9992
2 57433  43.0060  76.6215 0001194 278.3168  81.7548 15.27566880166581
STARLINK-30102          
1 57434U 23105E   26188.36268265  .00003018  00000+0  11955-3 0  9992
2 57434  43.0043 304.0551 0004462 146.2926 213.8210 15.27471137163839
STARLINK-30158          
1 57438U 23105J   26188.36518811  .00001874  00000+0  77627-4 0  9998
2 57438  43.0049 304.0760 0001703 269.0456  91.0201 15.27566282163885
STARLINK-30160          
1 57441U 23105M   26188.35649662  .00002246  00000+0  91177-4 0  9990
2 57441  43.0025 310.8252 0001363 250.4017 109.6688 15.27563872163644
STARLINK-30146          
1 57442U 23105N   26188.36905074  .00005666  00000+0  21541-3 0  9990
2 57442  43.0029 304.1016 0001382 263.6228  96.4466 15.27558659163941
STARLINK-30197          
1 57443U 23105P   26188.34849303  .00005237  00000+0  19978-3 0  9996
2 57443  43.0035 303.9487 0002055 264.6809  95.3808 15.27568925163880
STARLINK-30181          
1 57444U 23105Q   26188.35313519  .00000850  00000+0  40400-4 0  9994
2 57444  42.9991 307.3896 0000476 202.9065 157.1766 15.27572947163908
STARLINK-30215          
1 57445U 23105R   26188.37676230  .00004485  00000+0  17246-3 0  9998
2 57445  43.0043 304.1601 0001517 268.4164  91.6514 15.27566851163722
STARLINK-30162          
1 57446U 23105S   26188.35756030  .00002228  00000+0  90564-4 0  9992
2 57446  43.0027 292.9794 0001459 274.7419  85.3266 15.27542327164019
STARLINK-30178          
1 57447U 23105T   26188.37290986  .00018403  00000+0  67800-3 0  9996
2 57447  42.9984 304.1265 0000880 203.5862 156.4949 15.27511247163887
STARLINK-30196          
1 57448U 23105U   26188.34542348  .00005049  00000+0  19283-3 0  9990
2 57448  43.0012 307.3315 0001536 287.7771  72.2913 15.27586509163682
STARLINK-30225          
1 57449U 23105V   26188.41466899  .00005900  00000+0  22388-3 0  9991
2 57449  43.0038 306.9867 0001726 271.3075  88.7579 15.27560134163917
STARLINK-30217          
1 57450U 23105W   26188.29473081  .00013577  00000+0  50258-3 0  9996
2 57450  42.9999 293.4113 0003842 292.7501  67.2944 15.27537939164005
STARLINK-30216          
1 57451U 23105X   26188.39075110  .00006299  00000+0  23836-3 0  9994
2 57451  43.0046 303.4201 0002164 272.5508  87.5096 15.27561098163735
YAOGAN-36 05A           
1 57452U 23106A   26188.59443656  .00000847  00000+0  36653-4 0  9997
2 57452  35.0069 289.3398 0001666 250.7598 109.2936 15.23038936164264
YAOGAN-36 05B           
1 57454U 23106C   26188.64920985  .00003924  00000+0  19574-3 0  9991
2 57454  34.9955 313.3008 0022340 284.0375  75.7854 15.16771443163971
YAOGAN-36 05C           
1 57456U 23106E   26188.57963477  .00004031  00000+0  20198-3 0  9992
2 57456  34.9944 313.5637 0001387 194.1404 165.9270 15.16829359163966
STARLINK-30165          
1 57457U 23107A   26187.94669022 -.00013838  00000+0 -49410-3 0  9998
2 57457  43.0033  22.8034 0002662 257.4472 102.6082 15.27587264163375
STARLINK-30140          
1 57458U 23107B   26188.51155349  .00002350  00000+0  94936-4 0  9994
2 57458  43.0025  22.7094 0002009 138.0879 222.0126 15.27570403163432
STARLINK-30077          
1 57460U 23107D   26187.96968795 -.00000903  00000+0 -23300-4 0  9993
2 57460  43.0071  22.1237 0001470 336.9802  23.0984 15.27575549163397
STARLINK-30229          
1 57461U 23107E   26187.97655098  .00006424  00000+0  24280-3 0  9993
2 57461  43.0043  29.8415 0001623 273.7976  86.2691 15.27576904163302
STARLINK-30088          
1 57462U 23107F   26187.95184241  .00001511  00000+0  64439-4 0  9992
2 57462  43.0001  22.8402 0000894 260.3289  99.7462 15.27557886163385
STARLINK-30116          
1 57465U 23107J   26187.94156542  .00001318  00000+0  57443-4 0  9999
2 57465  43.0041  22.7599 0000962 254.2026 105.8719 15.27560491163385
STARLINK-30092          
1 57467U 23107L   26186.89923632 -.00008147  00000+0 -28668-3 0  9991
2 57467  43.0033  28.6973 0002980 280.9038  79.1478 15.27593670163223
STARLINK-30039          
1 57468U 23107M   26187.94927174 -.00000245  00000+0  63172-6 0  9996
2 57468  43.0033  22.8176 0000996 302.8270  57.2486 15.27570469163386
STARLINK-30171          
1 57469U 23107N   26187.92693697  .00006321  00000+0  23911-3 0  9999
2 57469  43.0033  26.0632 0001547 272.7606  87.3069 15.27566960163349
STARLINK-30186          
1 57470U 23107P   26188.58335648  .00127565  00000+0  23004-2 0  9999
2 57470  43.0006  23.3418 0001441 275.6556  16.3978 15.48596269  5470
STARLINK-30204          
1 57472U 23107R   26187.93128020 -.00000619  00000+0 -12984-4 0  9992
2 57472  43.0048  22.6849 0000829 288.8518  71.2244 15.27569547163388
STARLINK-30155          
1 57475U 23107U   26187.97095019  .00000098  00000+0  13082-4 0  9999
2 57475  43.0018  22.1218 0001656 271.0015  89.0647 15.27580140163395
STARLINK-30161          
1 57476U 23107V   26187.97481188  .00000135  00000+0  14442-4 0  9999
2 57476  43.0042  22.1486 0001517 264.2773  95.7906 15.27576597163394
