OBJECT_NAME,OBJECT_ID,EPOCH,MEAN_MOTION,ECCENTRICITY,INCLINATION,RA_OF_ASC_NODE,ARG_OF_PERICENTER,MEAN_ANOMALY,EPHEMERIS_TYPE,CLASSIFICATION_TYPE,NORAD_CAT_ID,ELEMENT_SET_NO,REV_AT_EPOCH,BSTAR,MEAN_MOTION_DOT,MEAN_MOTION_DDOT
STARLINK-30105,2023-105D,2026-07-07T01:45:27.725184,15.27566880,.00011943,43.0060,76.6215,278.3168,81.7548,0,U,57433,999,16658,-.26487402E-4,-.991E-5,0
STARLINK-30102,2023-105E,2026-07-07T08:42:15.780960,15.27471137,.00044626,43.0043,304.0551,146.2926,213.8210,0,U,57434,999,16383,.11954533E-3,.3018E-4,0
STARLINK-30158,2023-105J,2026-07-07T08:45:52.252704,15.27566282,.0001703,43.0049,304.0760,269.0456,91.0201,0,U,57438,999,16388,.77627274E-4,.1874E-4,0
STARLINK-30160,2023-105M,2026-07-07T08:33:21.307968,15.27563872,.00013637,43.0025,310.8252,250.4017,109.6688,0,U,57441,999,16364,.91177383E-4,.2246E-4,0
STARLINK-30146,2023-105N,2026-07-07T08:51:25.983936,15.27558659,.00013822,43.0029,304.1016,263.6228,96.4466,0,U,57442,999,16394,.21541353E-3,.5666E-4,0
STARLINK-30197,2023-105P,2026-07-07T08:21:49.797792,15.27568925,.00020554,43.0035,303.9487,264.6809,95.3808,0,U,57443,999,16388,.19978068E-3,.5237E-4,0
STARLINK-30181,2023-105Q,2026-07-07T08:28:30.880416,15.27572947,.00004763,42.9991,307.3896,202.9065,157.1766,0,U,57444,999,16390,.40400026E-4,.85E-5,0
STARLINK-30215,2023-105R,2026-07-07T09:02:32.262720,15.27566851,.00015174,43.0043,304.1601,268.4164,91.6514,0,U,57445,999,16372,.17245881E-3,.4485E-4,0
STARLINK-30162,2023-105S,2026-07-07T08:34:53.209920,15.27542327,.00014596,43.0027,292.9794,274.7419,85.3266,0,U,57446,999,16401,.90564432E-4,.2228E-4,0
STARLINK-30178,2023-105T,2026-07-07T08:56:59.411904,15.27511247,.00008806,42.9984,304.1265,203.5862,156.4949,0,U,57447,999,16388,.67800433E-3,.18403E-3,0
STARLINK-30196,2023-105U,2026-07-07T08:17:24.588672,15.27586509,.00015361,43.0012,307.3315,287.7771,72.2913,0,U,57448,999,16368,.1928313E-3,.5049E-4,0
STARLINK-30225,2023-105V,2026-07-07T09:57:07.400736,15.27560134,.00017266,43.0038,306.9867,271.3075,88.7579,0,U,57449,999,16391,.22387656E-3,.59E-4,0
STARLINK-30217,2023-105W,2026-07-07T07:04:24.741984,15.27537939,.00038422,42.9999,293.4113,292.7501,67.2944,0,U,57450,999,16400,.50258448E-3,.13577E-3,0
STARLINK-30216,2023-105X,2026-07-07T09:22:40.895040,15.27561098,.00021645,43.0046,303.4201,272.5508,87.5096,0,U,57451,999,16373,.23836318E-3,.6299E-4,0
YAOGAN-36 05A,2023-106A,2026-07-07T14:15:59.318784,15.23038936,.00016665,35.0069,289.3398,250.7598,109.2936,0,U,57452,999,16426,.36653452E-4,.847E-5,0
YAOGAN-36 05B,2023-106C,2026-07-07T15:34:51.731040,15.16771443,.00223404,34.9955,313.3008,284.0375,75.7854,0,U,57454,999,16397,.19573893E-3,.3924E-4,0
YAOGAN-36 05C,2023-106E,2026-07-07T13:54:40.444128,15.16829359,.00013874,34.9944,313.5637,194.1404,165.9270,0,U,57456,999,16396,.20197841E-3,.4031E-4,0
STARLINK-30165,2023-107A,2026-07-06T22:43:14.035008,15.27587264,.00026621,43.0033,22.8034,257.4472,102.6082,0,U,57457,999,16337,-.49410282E-3,-.13838E-3,0
STARLINK-30140,2023-107B,2026-07-07T12:16:38.221536,15.27570403,.00020097,43.0025,22.7094,138.0879,222.0126,0,U,57458,999,16343,.94936208E-4,.235E-4,0
STARLINK-30077,2023-107D,2026-07-06T23:16:21.038880,15.27575549,.00014704,43.0071,22.1237,336.9802,23.0984,0,U,57460,999,16339,-.23300467E-4,-.903E-5,0
STARLINK-30229,2023-107E,2026-07-06T23:26:14.004672,15.27576904,.00016231,43.0043,29.8415,273.7976,86.2691,0,U,57461,999,16330,.24279977E-3,.6424E-4,0
STARLINK-30088,2023-107F,2026-07-06T22:50:39.184224,15.27557886,.00008946,43.0001,22.8402,260.3289,99.7462,0,U,57462,999,16338,.64438902E-4,.1511E-4,0
STARLINK-30116,2023-107J,2026-07-06T22:35:51.252288,15.27560491,.00009625,43.0041,22.7599,254.2026,105.8719,0,U,57465,999,16338,.57442951E-4,.1318E-4,0
STARLINK-30092,2023-107L,2026-07-05T21:34:54.018048,15.27593670,.00029806,43.0033,28.6973,280.9038,79.1478,0,U,57467,999,16322,-.28667643E-3,-.8147E-4,0
STARLINK-30039,2023-107M,2026-07-06T22:46:57.078336,15.27570469,.00009962,43.0033,22.8176,302.8270,57.2486,0,U,57468,999,16338,.631716E-6,-.245E-5,0
STARLINK-30171,2023-107N,2026-07-06T22:14:47.354208,15.27566960,.00015471,43.0033,26.0632,272.7606,87.3069,0,U,57469,999,16334,.23910866E-3,.6321E-4,0
STARLINK-30186,2023-107P,2026-07-07T14:00:01.999872,15.48596269,.00014419,43.0006,23.3418,275.6556,16.3978,0,U,57470,999,547,.23003998E-2,.127565E-2,0
STARLINK-30204,2023-107R,2026-07-06T22:21:02.609280,15.27569547,.00008298,43.0048,22.6849,288.8518,71.2244,0,U,57472,999,16338,-.12983552E-4,-.619E-5,0
STARLINK-30155,2023-107U,2026-07-06T23:18:10.096416,15.27580140,.00016568,43.0018,22.1218,271.0015,89.0647,0,U,57475,999,16339,.1308162E-4,.98E-6,0
STARLINK-30161,2023-107V,2026-07-06T23:23:43.746432,15.27576597,.0001517,43.0042,22.1486,264.2773,95.7906,0,U,57476,999,16339,.1444188E-4,.135E-5,0
